[{"OBJECT_NAME":"GSAT0206 (GALILEO 10)","OBJECT_ID":"2015-045B","EPOCH":"2026-04-03T08:59:14.870688","MEAN_MOTION":1.7047395,"ECCENTRICITY":0.00028142,"INCLINATION":54.9697,"RA_OF_ASC_NODE":223.6683,"ARG_OF_PERICENTER":47.1384,"MEAN_ANOMALY":312.8358,"EPHEMERIS_TYPE":0,"CLASSIFICATION_TYPE":"U","NORAD_CAT_ID":40890,"ELEMENT_SET_NO":999,"REV_AT_EPOCH":6576,"BSTAR":0,"MEAN_MOTION_DOT":-1.3e-7,"MEAN_MOTION_DDOT":0},{"OBJECT_NAME":"BEIDOU-3S IGSO-2S (C56)","OBJECT_ID":"2015-053A","EPOCH":"2026-04-04T21:48:29.137248","MEAN_MOTION":1.0027737,"ECCENTRICITY":0.00623728,"INCLINATION":49.3383,"RA_OF_ASC_NODE":259.6493,"ARG_OF_PERICENTER":189.8511,"MEAN_ANOMALY":167.6444,"EPHEMERIS_TYPE":0,"CLASSIFICATION_TYPE":"U","NORAD_CAT_ID":40938,"ELEMENT_SET_NO":999,"REV_AT_EPOCH":3861,"BSTAR":0,"MEAN_MOTION_DOT":-1.41e-6,"MEAN_MOTION_DDOT":0},{"OBJECT_NAME":"GPS BIIF-11 (PRN 10)","OBJECT_ID":"2015-062A","EPOCH":"2026-04-03T11:46:35.851872","MEAN_MOTION":2.00567162,"ECCENTRICITY":0.01112914,"INCLINATION":56.9127,"RA_OF_ASC_NODE":33.6891,"ARG_OF_PERICENTER":231.5972,"MEAN_ANOMALY":127.3862,"EPHEMERIS_TYPE":0,"CLASSIFICATION_TYPE":"U","NORAD_CAT_ID":41019,"ELEMENT_SET_NO":999,"REV_AT_EPOCH":7633,"BSTAR":0,"MEAN_MOTION_DOT":-9.1e-7,"MEAN_MOTION_DDOT":0},{"OBJECT_NAME":"GSAT-15 (GAGAN/PRN 139)","OBJECT_ID":"2015-065A","EPOCH":"2026-04-05T03:03:38.763072","MEAN_MOTION":1.00268756,"ECCENTRICITY":0.00027959,"INCLINATION":0.0183,"RA_OF_ASC_NODE":220.1274,"ARG_OF_PERICENTER":191.7575,"MEAN_ANOMALY":280.944,"EPHEMERIS_TYPE":0,"CLASSIFICATION_TYPE":"U","NORAD_CAT_ID":41028,"ELEMENT_SET_NO":999,"REV_AT_EPOCH":3806,"BSTAR":0,"MEAN_MOTION_DOT":0,"MEAN_MOTION_DDOT":0},{"OBJECT_NAME":"GSAT0209 (GALILEO 12)","OBJECT_ID":"2015-079A","EPOCH":"2026-04-02T22:56:35.738880","MEAN_MOTION":1.70474345,"ECCENTRICITY":0.00055143,"INCLINATION":55.7797,"RA_OF_ASC_NODE":103.3236,"ARG_OF_PERICENTER":325.8217,"MEAN_ANOMALY":34.1781,"EPHEMERIS_TYPE":0,"CLASSIFICATION_TYPE":"U","NORAD_CAT_ID":41174,"ELEMENT_SET_NO":999,"REV_AT_EPOCH":6349,"BSTAR":0,"MEAN_MOTION_DOT":3.2e-7,"MEAN_MOTION_DDOT":0},{"OBJECT_NAME":"GSAT0208 (GALILEO 11)","OBJECT_ID":"2015-079B","EPOCH":"2026-04-03T04:13:44.855904","MEAN_MOTION":1.70474211,"ECCENTRICITY":0.00049738,"INCLINATION":55.7782,"RA_OF_ASC_NODE":103.3145,"ARG_OF_PERICENTER":327.5574,"MEAN_ANOMALY":32.446,"EPHEMERIS_TYPE":0,"CLASSIFICATION_TYPE":"U","NORAD_CAT_ID":41175,"ELEMENT_SET_NO":999,"REV_AT_EPOCH":6391,"BSTAR":0,"MEAN_MOTION_DOT":3.1e-7,"MEAN_MOTION_DDOT":0},{"OBJECT_NAME":"IRNSS-1E","OBJECT_ID":"2016-003A","EPOCH":"2026-04-04T08:10:43.434336","MEAN_MOTION":1.00272036,"ECCENTRICITY":0.0016904,"INCLINATION":33.0772,"RA_OF_ASC_NODE":60.8121,"ARG_OF_PERICENTER":186.2611,"MEAN_ANOMALY":180.0759,"EPHEMERIS_TYPE":0,"CLASSIFICATION_TYPE":"U","NORAD_CAT_ID":41241,"ELEMENT_SET_NO":999,"REV_AT_EPOCH":3734,"BSTAR":0,"MEAN_MOTION_DOT":-2.92e-6,"MEAN_MOTION_DDOT":0},{"OBJECT_NAME":"GPS BIIF-12 (PRN 32)","OBJECT_ID":"2016-007A","EPOCH":"2026-04-05T01:45:21.096576","MEAN_MOTION":2.0055533,"ECCENTRICITY":0.00959937,"INCLINATION":55.4776,"RA_OF_ASC_NODE":92.3565,"ARG_OF_PERICENTER":246.7419,"MEAN_ANOMALY":112.253,"EPHEMERIS_TYPE":0,"CLASSIFICATION_TYPE":"U","NORAD_CAT_ID":41328,"ELEMENT_SET_NO":999,"REV_AT_EPOCH":7437,"BSTAR":0,"MEAN_MOTION_DOT":3.0e-8,"MEAN_MOTION_DDOT":0},{"OBJECT_NAME":"COSMOS 2514 (751)","OBJECT_ID":"2016-008A","EPOCH":"2026-04-01T07:50:17.610144","MEAN_MOTION":2.13102702,"ECCENTRICITY":0.00090385,"INCLINATION":65.0661,"RA_OF_ASC_NODE":315.6458,"ARG_OF_PERICENTER":202.4041,"MEAN_ANOMALY":157.6117,"EPHEMERIS_TYPE":0,"CLASSIFICATION_TYPE":"U","NORAD_CAT_ID":41330,"ELEMENT_SET_NO":999,"REV_AT_EPOCH":7898,"BSTAR":0,"MEAN_MOTION_DOT":-3.7e-7,"MEAN_MOTION_DDOT":0},{"OBJECT_NAME":"IRNSS-1F","OBJECT_ID":"2016-015A","EPOCH":"2026-04-05T05:12:38.653056","MEAN_MOTION":1.00275321,"ECCENTRICITY":0.00179039,"INCLINATION":5.1645,"RA_OF_ASC_NODE":98.4763,"ARG_OF_PERICENTER":187.9777,"MEAN_ANOMALY":17.6934,"EPHEMERIS_TYPE":0,"CLASSIFICATION_TYPE":"U","NORAD_CAT_ID":41384,"ELEMENT_SET_NO":999,"REV_AT_EPOCH":3693,"BSTAR":0,"MEAN_MOTION_DOT":1.61e-6,"MEAN_MOTION_DDOT":0},{"OBJECT_NAME":"BEIDOU-2 IGSO-6 (C13)","OBJECT_ID":"2016-021A","EPOCH":"2026-04-02T19:31:21.614304","MEAN_MOTION":1.00273243,"ECCENTRICITY":0.00588423,"INCLINATION":60.1276,"RA_OF_ASC_NODE":38.7875,"ARG_OF_PERICENTER":233.3821,"MEAN_ANOMALY":307.4549,"EPHEMERIS_TYPE":0,"CLASSIFICATION_TYPE":"U","NORAD_CAT_ID":41434,"ELEMENT_SET_NO":999,"REV_AT_EPOCH":3672,"BSTAR":0,"MEAN_MOTION_DOT":-1.7e-6,"MEAN_MOTION_DDOT":0},{"OBJECT_NAME":"IRNSS-1G","OBJECT_ID":"2016-027A","EPOCH":"2026-04-05T06:30:59.040288","MEAN_MOTION":1.00270353,"ECCENTRICITY":0.00058734,"INCLINATION":5.0151,"RA_OF_ASC_NODE":99.2044,"ARG_OF_PERICENTER":331.5039,"MEAN_ANOMALY":350.1387,"EPHEMERIS_TYPE":0,"CLASSIFICATION_TYPE":"U","NORAD_CAT_ID":41469,"ELEMENT_SET_NO":999,"REV_AT_EPOCH":3644,"BSTAR":0,"MEAN_MOTION_DOT":-3.31e-6,"MEAN_MOTION_DDOT":0},{"OBJECT_NAME":"GSAT0211 (GALILEO 14)","OBJECT_ID":"2016-030A","EPOCH":"2026-04-04T11:21:42.401088","MEAN_MOTION":1.70474141,"ECCENTRICITY":0.00028673,"INCLINATION":55.1194,"RA_OF_ASC_NODE":223.7205,"ARG_OF_PERICENTER":14.1895,"MEAN_ANOMALY":345.7766,"EPHEMERIS_TYPE":0,"CLASSIFICATION_TYPE":"U","NORAD_CAT_ID":41549,"ELEMENT_SET_NO":999,"REV_AT_EPOCH":6141,"BSTAR":0,"MEAN_MOTION_DOT":-7.0e-8,"MEAN_MOTION_DDOT":0},{"OBJECT_NAME":"GSAT0210 (GALILEO 13)","OBJECT_ID":"2016-030B","EPOCH":"2026-04-04T03:27:29.627424","MEAN_MOTION":1.70474077,"ECCENTRICITY":0.00020513,"INCLINATION":55.1189,"RA_OF_ASC_NODE":223.7276,"ARG_OF_PERICENTER":215.3594,"MEAN_ANOMALY":144.5829,"EPHEMERIS_TYPE":0,"CLASSIFICATION_TYPE":"U","NORAD_CAT_ID":41550,"ELEMENT_SET_NO":999,"REV_AT_EPOCH":6140,"BSTAR":0,"MEAN_MOTION_DOT":-8.0e-8,"MEAN_MOTION_DDOT":0},{"OBJECT_NAME":"BEIDOU-2 G7 (C03)","OBJECT_ID":"2016-037A","EPOCH":"2026-04-05T06:25:29.566848","MEAN_MOTION":1.00277528,"ECCENTRICITY":0.00075075,"INCLINATION":1.5403,"RA_OF_ASC_NODE":68.5764,"ARG_OF_PERICENTER":349.6401,"MEAN_ANOMALY":342.1932,"EPHEMERIS_TYPE":0,"CLASSIFICATION_TYPE":"U","NORAD_CAT_ID":41586,"ELEMENT_SET_NO":999,"REV_AT_EPOCH":615,"BSTAR":0,"MEAN_MOTION_DOT":-3.52e-6,"MEAN_MOTION_DDOT":0},{"OBJECT_NAME":"EUTELSAT 117 WEST B (WAAS/PRN 131)","OBJECT_ID":"2016-038B","EPOCH":"2026-04-05T05:20:36.045888","MEAN_MOTION":1.0027,"ECCENTRICITY":4.001e-5,"INCLINATION":0.0144,"RA_OF_ASC_NODE":59.8312,"ARG_OF_PERICENTER":210.449,"MEAN_ANOMALY":246.4043,"EPHEMERIS_TYPE":0,"CLASSIFICATION_TYPE":"U","NORAD_CAT_ID":41589,"ELEMENT_SET_NO":999,"REV_AT_EPOCH":3593,"BSTAR":0,"MEAN_MOTION_DOT":-1.0e-7,"MEAN_MOTION_DDOT":0},{"OBJECT_NAME":"GSAT0207 (GALILEO 15)","OBJECT_ID":"2016-069A","EPOCH":"2026-04-03T05:58:52.924224","MEAN_MOTION":1.70474272,"ECCENTRICITY":0.00057815,"INCLINATION":55.4504,"RA_OF_ASC_NODE":103.1579,"ARG_OF_PERICENTER":313.2719,"MEAN_ANOMALY":46.7132,"EPHEMERIS_TYPE":0,"CLASSIFICATION_TYPE":"U","NORAD_CAT_ID":41859,"ELEMENT_SET_NO":999,"REV_AT_EPOCH":5812,"BSTAR":0,"MEAN_MOTION_DOT":3.0e-7,"MEAN_MOTION_DDOT":0}]
